NORAD_CAT_ID,OBJECT_NAME,OBJECT_TYPE,EPOCH,MEAN_MOTION,ECCENTRICITY,INCLINATION,RA_OF_ASC_NODE,ARG_OF_PERICENTER,MEAN_ANOMALY,BSTAR,MEAN_MOTION_DOT,MEAN_MOTION_DDOT,TLE_LINE0,TLE_LINE1,TLE_LINE2,SEMIMAJOR_AXIS,PERIOD,APOGEE,PERIGEE,DECAYED
49422.0,STARLINK-3161,PAYLOAD,2022-09-03 16:38:15,15.08848694,0.0001947,53.216,228.7259,54.4007,305.7167,0.0001141,1.529e-05,0.0,0 STARLINK-3161,1 49422U 21104Q   22246.69324010  .00001529  00000-0  11410-3 0  9997,2 49422  53.2160 228.7259 0001947  54.4007 305.7167 15.08848694 44938,6917.854,95.437,541.066,538.372,0.0
49422.0,STARLINK-3161,PAYLOAD,2022-09-04 05:21:21,15.08838239,0.0001904,53.2162,226.347,52.3292,307.7873,-2.0464e-05,-6.14e-06,0.0,0 STARLINK-3161,1 49422U 21104Q   22247.22316863 -.00000614  00000-0 -20464-4 0  9990,2 49422  53.2162 226.3470 0001904  52.3292 307.7873 15.08838239 46117,6917.886,95.438,541.068,538.434,0.0
49422.0,STARLINK-3161,PAYLOAD,2022-09-04 08:32:07,15.08842235,0.0001976,53.2175,225.7515,59.977,300.1418,3.957e-05,3.42e-06,0.0,0 STARLINK-3161,1 49422U 21104Q   22247.35564464  .00000342  00000-0  39570-4 0  9990,2 49422  53.2175 225.7515 0001976  59.9770 300.1418 15.08842235 46132,6917.874,95.437,541.106,538.372,0.0
49422.0,STARLINK-3161,PAYLOAD,2022-09-05 06:47:32,15.08825876,0.0001345,53.217,221.5884,63.3084,296.8046,-0.0001797,-3.146e-05,0.0,0 STARLINK-3161,1 49422U 21104Q   22248.28301469 -.00003146  00000-0 -17970-3 0  9993,2 49422  53.2170 221.5884 0001345  63.3084 296.8046 15.08825876 46272,6917.924,95.438,540.719,538.8580000000002,0.0
49422.0,STARLINK-3161,PAYLOAD,2022-09-06 03:27:32,15.08835339,0.0001911999999999,53.2173,217.7231,47.7187,312.3967,-4.4456e-06,-3.59e-06,0.0,0 STARLINK-3161,1 49422U 21104Q   22249.14412318 -.00000359  00000-0 -44456-5 0  9999,2 49422  53.2173 217.7231 0001912  47.7187 312.3967 15.08835339 46404,6917.895,95.438,541.082,538.437,0.0
49422.0,STARLINK-3161,PAYLOAD,2022-09-06 08:13:43,15.08820307,0.000195,53.2173,216.8317,49.549,310.5671,-0.00018382,-3.211e-05,0.0,0 STARLINK-3161,1 49422U 21104Q   22249.34285992 -.00003211  00000-0 -18382-3 0  9994,2 49422  53.2173 216.8317 0001950  49.5490 310.5671 15.08820307 46432,6917.941,95.439,541.155,538.457,0.0
49422.0,STARLINK-3161,PAYLOAD,2022-09-07 06:29:07,15.0882143,0.0001766,53.2166,212.669,50.732,309.3828,-5.4359e-05,-1.153e-05,0.0,0 STARLINK-3161,1 49422U 21104Q   22250.27022526 -.00001153  00000-0 -54359-4 0  9998,2 49422  53.2166 212.6690 0001766  50.7320 309.3828 15.08821430 46576,6917.937,95.439,541.024,538.58,0.0
49422.0,STARLINK-3161,PAYLOAD,2022-09-07 14:26:02,15.08836533,0.0001803,53.2167,211.1822,46.747,313.3672,-0.00018699,-3.263e-05,0.0,0 STARLINK-3161,1 49422U 21104Q   22250.60142177 -.00003263  00000-0 -18699-3 0  9990,2 49422  53.2167 211.1822 0001803  46.7470 313.3672 15.08836533 46629,6917.891,95.438,541.003,538.509,0.0
49422.0,STARLINK-3161,PAYLOAD,2022-09-08 06:19:54,15.08833743,0.0001789,53.2166,208.2087,50.8128,309.3023,0.00010885,1.444e-05,0.0,0 STARLINK-3161,1 49422U 21104Q   22251.26382330  .00001444  00000-0  10885-3 0  9996,2 49422  53.2166 208.2087 0001789  50.8128 309.3023 15.08833743 45621,6917.9,95.438,541.002,538.5269999999998,0.0
49422.0,STARLINK-3161,PAYLOAD,2022-09-09 02:59:55,15.08848847,0.0001855,53.216,204.3418,50.8361,309.2796,0.00042611,6.502e-05,0.0,0 STARLINK-3161,1 49422U 21104Q   22252.12494271  .00006502  00000-0  42611-3 0  9992,2 49422  53.2160 204.3418 0001855  50.8361 309.2796 15.08848847 46856,6917.853,95.437,541.002,538.435,0.0
49422.0,STARLINK-3161,PAYLOAD,2022-09-09 06:10:41,15.08853355,0.0001861,53.216,203.7468,51.4966,308.6193,0.00047969,7.357e-05,0.0,0 STARLINK-3161,1 49422U 21104Q   22252.25742090  .00007357  00000-0  47969-3 0  9991,2 49422  53.2160 203.7468 0001861  51.4966 308.6193 15.08853355 45773,6917.84,95.437,540.992,538.4169999999998,0.0
49422.0,STARLINK-3161,PAYLOAD,2022-09-10 02:50:41,15.08857429,0.0001806,53.216,199.8814,47.8174,312.2971,0.00028913,4.319e-05,0.0,0 STARLINK-3161,1 49422U 21104Q   22253.11853517  .00004319  00000-0  28913-3 0  9997,2 49422  53.2160 199.8814 0001806  47.8174 312.2971 15.08857429 45908,6917.8269999999975,95.436,540.941,538.443,0.0
49422.0,STARLINK-3161,PAYLOAD,2022-09-10 18:44:32,15.08848921,0.0001644,53.216,196.9076,55.2987,304.816,5.646e-05,6.11e-06,0.0,0 STARLINK-3161,1 49422U 21104Q   22253.78093376  .00000611  00000-0  56460-4 0  9999,2 49422  53.2160 196.9076 0001644  55.2987 304.8160 15.08848921 47109,6917.853,95.437,540.855,538.581,0.0
49422.0,STARLINK-3161,PAYLOAD,2022-09-10 20:19:55,15.08848741,0.0001538,53.2163,196.6097,61.697,298.4177,-2.2037e-05,-6.39e-06,0.0,0 STARLINK-3161,1 49422U 21104Q   22253.84717331 -.00000639  00000-0 -22037-4 0  9995,2 49422  53.2163 196.6097 0001538  61.6970 298.4177 15.08848741 46012,6917.854,95.437,540.783,538.655,0.0
49422.0,STARLINK-3161,PAYLOAD,2022-09-11 05:52:14,15.08849274,0.0001531999999999,53.2168,194.8263,54.909,305.2046,-1.0744e-05,-4.59e-06,0.0,0 STARLINK-3161,1 49422U 21104Q   22254.24461357 -.00000459  00000-0 -10744-4 0  9996,2 49422  53.2168 194.8263 0001532  54.9090 305.2046 15.08849274 46074,6917.852,95.437,540.7769999999998,538.6569999999998,0.0
49422.0,STARLINK-3161,PAYLOAD,2022-09-11 20:10:42,15.08863497,0.0001426999999999,53.2171,192.15,51.6856,308.4264,-0.00014367,-2.575e-05,0.0,0 STARLINK-3161,1 49422U 21104Q   22254.84076632 -.00002575  00000-0 -14367-3 0  9995,2 49422  53.2171 192.1500 0001427  51.6856 308.4264 15.08863497 46160,6917.809,95.436,540.661,538.686,0.0
49422.0,STARLINK-3161,PAYLOAD,2022-09-12 02:32:14,15.08857876,0.000175,53.2169,190.9612,49.2323,310.8821,-8.8186e-05,-1.692e-05,0.0,0 STARLINK-3161,1 49422U 21104Q   22255.10572577 -.00001692  00000-0 -88186-4 0  9994,2 49422  53.2169 190.9612 0001750  49.2323 310.8821 15.08857876 47305,6917.826,95.436,540.901,538.48,0.0
49422.0,STARLINK-3161,PAYLOAD,2022-09-12 05:43:00,15.08860498,0.0001703,53.2169,190.3665,53.363,306.7518,-0.00012446,-2.27e-05,0.0,0 STARLINK-3161,1 49422U 21104Q   22255.23820375 -.00002270  00000-0 -12446-3 0  9998,2 49422  53.2169 190.3665 0001703  53.3630 306.7518 15.08860498 46223,6917.818,95.436,540.861,538.505,0.0
49422.0,STARLINK-3161,PAYLOAD,2022-09-12 20:01:30,15.08835165,0.0001628,53.2166,187.69,51.918,308.1959,3.2534000000000004e-05,2.3e-06,0.0,0 STARLINK-3161,1 49422U 21104Q   22255.83437647  .00000230  00000-0  32534-4 0  9993,2 49422  53.2166 187.6900 0001628  51.9180 308.1959 15.08835165 47411,6917.895,95.438,540.886,538.634,0.0
49422.0,STARLINK-3161,PAYLOAD,2022-09-13 11:55:21,15.08843514,0.0001710999999999,53.2169,184.7167,48.0801,312.0337,5.532e-05,5.93e-06,0.0,0 STARLINK-3161,1 49422U 21104Q   22256.49677152  .00000593  00000-0  55320-4 0  9993,2 49422  53.2169 184.7167 0001711  48.0801 312.0337 15.08843514 46417,6917.87,95.437,540.918,538.5509999999998,0.0
49422.0,STARLINK-3161,PAYLOAD,2022-09-13 19:52:17,15.08833757,0.0001825,53.2184,183.2307,70.6313,289.4876,1.6037e-05,-3.3e-07,0.0,0 STARLINK-3161,1 49422U 21104Q   22256.82797901 -.00000033  00000-0  16037-4 0  9997,2 49422  53.2184 183.2307 0001825  70.6313 289.4876 15.08833757 46467,6917.899,95.438,541.0269999999998,538.502,0.0
49422.0,STARLINK-3161,PAYLOAD,2022-09-14 03:49:13,15.08834822,0.0001821,53.2183,181.7441,68.8933,291.2254,2.3773e-05,9.000000000000002e-07,0.0,0 STARLINK-3161,1 49422U 21104Q   22257.15917971  .00000090  00000-0  23773-4 0  9992,2 49422  53.2183 181.7441 0001821  68.8933 291.2254 15.08834822 46512,6917.896,95.438,541.021,538.501,0.0
49422.0,STARLINK-3161,PAYLOAD,2022-09-14 11:46:09,15.08828089,0.0002078,53.2182,180.2568,54.6713,305.4473,-7.8046e-05,-1.53e-05,0.0,0 STARLINK-3161,1 49422U 21104Q   22257.49038916 -.00001530  00000-0 -78046-4 0  9997,2 49422  53.2182 180.2568 0002078  54.6713 305.4473 15.08828089 46563,6917.917,95.438,541.219,538.344,0.0
49422.0,STARLINK-3161,PAYLOAD,2022-09-15 03:39:59,15.08841333,0.0001761999999999,53.2168,177.2819,49.0671,311.0473,0.00015549,2.188e-05,0.0,0 STARLINK-3161,1 49422U 21104Q   22258.15277726  .00002188  00000-0  15549-3 0  9991,2 49422  53.2168 177.2819 0001762  49.0671 311.0473 15.08841333 47765,6917.876,95.437,540.96,538.5219999999998,0.0
49422.0,STARLINK-3161,PAYLOAD,2022-09-15 17:58:28,15.08840392,0.0001841999999999,53.2177,174.6069,59.6726,300.4449,7.4573e-05,8.99e-06,0.0,0 STARLINK-3161,1 49422U 21104Q   22258.74894088  .00000899  00000-0  74573-4 0  9992,2 49422  53.2177 174.6069 0001842  59.6726 300.4449 15.08840392 46757,6917.879,95.438,541.018,538.47,0.0
49422.0,STARLINK-3161,PAYLOAD,2022-09-16 03:30:46,15.08845576,0.0002015,53.2173,172.8224,40.9269,319.1874,0.00013174,1.809e-05,0.0,0 STARLINK-3161,1 49422U 21104Q   22259.14637679  .00001809  00000-0  13174-3 0  9999,2 49422  53.2173 172.8224 0002015  40.9269 319.1874 15.08845576 46819,6917.863,95.437,541.122,538.3340000000002,0.0
49422.0,STARLINK-3161,PAYLOAD,2022-09-17 01:46:13,15.08819524,0.0001766,53.2177,168.6573,51.4492,308.6658,-0.00015442,-2.743e-05,0.0,0 STARLINK-3161,1 49422U 21104Q   22260.07376437 -.00002743  00000-0 -15442-3 0  9995,2 49422  53.2177 168.6573 0001766  51.4492 308.6658 15.08819524 46952,6917.943,95.439,541.03,538.586,0.0
49422.0,STARLINK-3161,PAYLOAD,2022-09-17 17:40:04,15.08832053,0.0001349,53.2178,165.6825,62.6223,297.4907,-6.8237e-05,-1.373e-05,0.0,0 STARLINK-3161,1 49422U 21104Q   22260.73616147 -.00001373  00000-0 -68237-4 0  9992,2 49422  53.2178 165.6825 0001349  62.6223 297.4907 15.08832053 47059,6917.905,95.438,540.703,538.836,0.0
49422.0,STARLINK-3161,PAYLOAD,2022-09-18 00:01:36,15.08838861,0.0001949,53.2165,164.5009,42.0348,318.0794,8.8271e-07,-2.74e-06,0.0,0 STARLINK-3161,1 49422U 21104Q   22261.00111400 -.00000274  00000-0  88271-6 0  9995,2 49422  53.2165 164.5009 0001949  42.0348 318.0794 15.08838861 48196,6917.884,95.438,541.097,538.401,0.0
